{"fetched_at":"2026-07-18T17:29:31.619Z","source":"https://celestrak.org/NORAD/elements/gp.php?GROUP=oneweb&FORMAT=JSON","constellation":"oneweb","records":[{"OBJECT_NAME":"ONEWEB-0628","OBJECT_ID":"2023-004AF","EPOCH":"2026-07-17T21:35:48.803424","CLASSIFICATION_TYPE":"U","MEAN_MOTION":13.12447115,"ECCENTRICITY":0.00015722,"INCLINATION":87.8972,"RA_OF_ASC_NODE":344.547,"ARG_OF_PERICENTER":75.5456,"MEAN_ANOMALY":284.5847,"EPHEMERIS_TYPE":0,"NORAD_CAT_ID":55169,"ELEMENT_SET_NO":999,"REV_AT_EPOCH":17206,"BSTAR":-0.0019634773,"MEAN_MOTION_DOT":-0.00000694,"MEAN_MOTION_DDOT":0},{"OBJECT_NAME":"ONEWEB-0629","OBJECT_ID":"2023-004AG","EPOCH":"2026-07-18T04:06:48.229920","CLASSIFICATION_TYPE":"U","MEAN_MOTION":13.17649908,"ECCENTRICITY":0.00015507,"INCLINATION":87.9148,"RA_OF_ASC_NODE":359.7061,"ARG_OF_PERICENTER":92.771,"MEAN_ANOMALY":267.3599,"EPHEMERIS_TYPE":0,"NORAD_CAT_ID":55170,"ELEMENT_SET_NO":999,"REV_AT_EPOCH":17166,"BSTAR":-0.00011531807,"MEAN_MOTION_DOT":-3.2e-7,"MEAN_MOTION_DDOT":0},{"OBJECT_NAME":"ONEWEB-0631","OBJECT_ID":"2023-004AH","EPOCH":"2026-07-17T21:46:34.739328","CLASSIFICATION_TYPE":"U","MEAN_MOTION":13.18686616,"ECCENTRICITY":0.0002301,"INCLINATION":87.9199,"RA_OF_ASC_NODE":329.3275,"ARG_OF_PERICENTER":89.9476,"MEAN_ANOMALY":270.192,"EPHEMERIS_TYPE":0,"NORAD_CAT_ID":55171,"ELEMENT_SET_NO":999,"REV_AT_EPOCH":17372,"BSTAR":-0.000029199663,"MEAN_MOTION_DOT":1e-8,"MEAN_MOTION_DDOT":0},{"OBJECT_NAME":"ONEWEB-0709","OBJECT_ID":"2023-004AJ","EPOCH":"2026-07-18T06:10:16.708512","CLASSIFICATION_TYPE":"U","MEAN_MOTION":13.11415238,"ECCENTRICITY":0.00026993,"INCLINATION":87.8883,"RA_OF_ASC_NODE":14.8913,"ARG_OF_PERICENTER":96.9616,"MEAN_ANOMALY":263.182,"EPHEMERIS_TYPE":0,"NORAD_CAT_ID":55172,"ELEMENT_SET_NO":999,"REV_AT_EPOCH":16994,"BSTAR":0.0010584169,"MEAN_MOTION_DOT":0.00000388,"MEAN_MOTION_DDOT":0},{"OBJECT_NAME":"ONEWEB-0710","OBJECT_ID":"2023-004AK","EPOCH":"2026-07-18T04:27:27.708768","CLASSIFICATION_TYPE":"U","MEAN_MOTION":13.17648198,"ECCENTRICITY":0.00018767,"INCLINATION":87.9145,"RA_OF_ASC_NODE":359.6987,"ARG_OF_PERICENTER":88.4137,"MEAN_ANOMALY":271.721,"EPHEMERIS_TYPE":0,"NORAD_CAT_ID":55173,"ELEMENT_SET_NO":999,"REV_AT_EPOCH":17166,"BSTAR":-0.00014730766,"MEAN_MOTION_DOT":-4.4e-7,"MEAN_MOTION_DDOT":0},{"OBJECT_NAME":"ONEWEB-0711","OBJECT_ID":"2023-004AL","EPOCH":"2026-07-17T23:59:09.777408","CLASSIFICATION_TYPE":"U","MEAN_MOTION":13.11418702,"ECCENTRICITY":0.00017955,"INCLINATION":87.8887,"RA_OF_ASC_NODE":14.9309,"ARG_OF_PERICENTER":68.0948,"MEAN_ANOMALY":292.037,"EPHEMERIS_TYPE":0,"NORAD_CAT_ID":55174,"ELEMENT_SET_NO":999,"REV_AT_EPOCH":16987,"BSTAR":0.00031245596,"MEAN_MOTION_DOT":0.00000123,"MEAN_MOTION_DDOT":0},{"OBJECT_NAME":"ONEWEB-0713","OBJECT_ID":"2023-004AM","EPOCH":"2026-07-18T00:26:02.073120","CLASSIFICATION_TYPE":"U","MEAN_MOTION":13.11416772,"ECCENTRICITY":0.00018014,"INCLINATION":87.8888,"RA_OF_ASC_NODE":14.9292,"ARG_OF_PERICENTER":78.6696,"MEAN_ANOMALY":281.4634,"EPHEMERIS_TYPE":0,"NORAD_CAT_ID":55175,"ELEMENT_SET_NO":999,"REV_AT_EPOCH":16986,"BSTAR":0.0014733272,"MEAN_MOTION_DOT":0.00000535,"MEAN_MOTION_DDOT":0},{"OBJECT_NAME":"ONEWEB-0715","OBJECT_ID":"2023-004AN","EPOCH":"2026-07-18T05:48:18.800928","CLASSIFICATION_TYPE":"U","MEAN_MOTION":13.1141664,"ECCENTRICITY":0.00025379,"INCLINATION":87.8889,"RA_OF_ASC_NODE":14.8848,"ARG_OF_PERICENTER":89.5518,"MEAN_ANOMALY":270.5901,"EPHEMERIS_TYPE":0,"NORAD_CAT_ID":55176,"ELEMENT_SET_NO":999,"REV_AT_EPOCH":16993,"BSTAR":0.0012034632,"MEAN_MOTION_DOT":0.00000439,"MEAN_MOTION_DDOT":0},{"OBJECT_NAME":"ONEWEB-0716","OBJECT_ID":"2023-004AP","EPOCH":"2026-07-17T22:49:41.761920","CLASSIFICATION_TYPE":"U","MEAN_MOTION":13.17648316,"ECCENTRICITY":0.00018075,"INCLINATION":87.9148,"RA_OF_ASC_NODE":359.7482,"ARG_OF_PERICENTER":100.2504,"MEAN_ANOMALY":259.8832,"EPHEMERIS_TYPE":0,"NORAD_CAT_ID":55177,"ELEMENT_SET_NO":999,"REV_AT_EPOCH":17163,"BSTAR":-0.000007487615,"MEAN_MOTION_DOT":1e-7,"MEAN_MOTION_DDOT":0},{"OBJECT_NAME":"ONEWEB-0717","OBJECT_ID":"2023-004AQ","EPOCH":"2026-07-18T00:14:44.141568","CLASSIFICATION_TYPE":"U","MEAN_MOTION":13.17650587,"ECCENTRICITY":0.00020106,"INCLINATION":87.9157,"RA_OF_ASC_NODE":359.727,"ARG_OF_PERICENTER":77.0799,"MEAN_ANOMALY":283.0557,"EPHEMERIS_TYPE":0,"NORAD_CAT_ID":55178,"ELEMENT_SET_NO":999,"REV_AT_EPOCH":17169,"BSTAR":-0.00022027991,"MEAN_MOTION_DOT":-7.3e-7,"MEAN_MOTION_DDOT":0},{"OBJECT_NAME":"ONEWEB-0719","OBJECT_ID":"2023-004AR","EPOCH":"2026-07-17T22:39:57.646944","CLASSIFICATION_TYPE":"U","MEAN_MOTION":13.17648738,"ECCENTRICITY":0.00017091,"INCLINATION":87.9157,"RA_OF_ASC_NODE":359.7201,"ARG_OF_PERICENTER":96.4613,"MEAN_ANOMALY":263.6713,"EPHEMERIS_TYPE":0,"NORAD_CAT_ID":55179,"ELEMENT_SET_NO":999,"REV_AT_EPOCH":17163,"BSTAR":-0.00046542135,"MEAN_MOTION_DOT":-0.00000168,"MEAN_MOTION_DDOT":0},{"OBJECT_NAME":"ONEWEB-0530","OBJECT_ID":"2023-029A","EPOCH":"2026-07-18T03:36:17.610048","CLASSIFICATION_TYPE":"U","MEAN_MOTION":13.20773307,"ECCENTRICITY":0.00017819,"INCLINATION":87.9173,"RA_OF_ASC_NODE":268.2962,"ARG_OF_PERICENTER":87.2801,"MEAN_ANOMALY":272.8536,"EPHEMERIS_TYPE":0,"NORAD_CAT_ID":55796,"ELEMENT_SET_NO":999,"REV_AT_EPOCH":16523,"BSTAR":0.00031262546,"MEAN_MOTION_DOT":0.0000014,"MEAN_MOTION_DDOT":0},{"OBJECT_NAME":"ONEWEB-0534","OBJECT_ID":"2023-029B","EPOCH":"2026-07-18T03:19:18.804576","CLASSIFICATION_TYPE":"U","MEAN_MOTION":13.20769945,"ECCENTRICITY":0.00020893,"INCLINATION":87.9174,"RA_OF_ASC_NODE":268.2999,"ARG_OF_PERICENTER":100.9287,"MEAN_ANOMALY":259.2082,"EPHEMERIS_TYPE":0,"NORAD_CAT_ID":55797,"ELEMENT_SET_NO":999,"REV_AT_EPOCH":16523,"BSTAR":0.00017104915,"MEAN_MOTION_DOT":8.3e-7,"MEAN_MOTION_DDOT":0},{"OBJECT_NAME":"ONEWEB-0556","OBJECT_ID":"2023-029C","EPOCH":"2026-07-18T03:29:01.927680","CLASSIFICATION_TYPE":"U","MEAN_MOTION":13.20769244,"ECCENTRICITY":0.00014458,"INCLINATION":87.9172,"RA_OF_ASC_NODE":268.2972,"ARG_OF_PERICENTER":116.7012,"MEAN_ANOMALY":243.427,"EPHEMERIS_TYPE":0,"NORAD_CAT_ID":55798,"ELEMENT_SET_NO":999,"REV_AT_EPOCH":16523,"BSTAR":0.00068742954,"MEAN_MOTION_DOT":0.00000292,"MEAN_MOTION_DDOT":0},{"OBJECT_NAME":"ONEWEB-0562","OBJECT_ID":"2023-029D","EPOCH":"2026-07-17T21:42:21.744576","CLASSIFICATION_TYPE":"U","MEAN_MOTION":13.20772823,"ECCENTRICITY":0.00012665,"INCLINATION":87.9172,"RA_OF_ASC_NODE":268.3262,"ARG_OF_PERICENTER":86.5977,"MEAN_ANOMALY":273.5301,"EPHEMERIS_TYPE":0,"NORAD_CAT_ID":55799,"ELEMENT_SET_NO":999,"REV_AT_EPOCH":16520,"BSTAR":0.00035630411,"MEAN_MOTION_DOT":0.00000158,"MEAN_MOTION_DDOT":0},{"OBJECT_NAME":"ONEWEB-0563","OBJECT_ID":"2023-029E","EPOCH":"2026-07-18T04:51:26.936640","CLASSIFICATION_TYPE":"U","MEAN_MOTION":13.20770245,"ECCENTRICITY":0.00021684,"INCLINATION":87.9169,"RA_OF_ASC_NODE":268.2966,"ARG_OF_PERICENTER":103.6422,"MEAN_ANOMALY":256.4953,"EPHEMERIS_TYPE":0,"NORAD_CAT_ID":55800,"ELEMENT_SET_NO":999,"REV_AT_EPOCH":16523,"BSTAR":0.00010865947,"MEAN_MOTION_DOT":5.7e-7,"MEAN_MOTION_DDOT":0}]}
