ONEWEB-0628             
1 55169U 23004AF  26198.89987041 -.00000694  00000+0 -19635-2 0  9993
2 55169  87.8972 344.5470 0001572  75.5456 284.5847 13.12447115172066
ONEWEB-0629             
1 55170U 23004AG  26199.17139155 -.00000032  00000+0 -11532-3 0  9997
2 55170  87.9148 359.7061 0001550  92.7710 267.3599 13.17649908171665
ONEWEB-0631             
1 55171U 23004AH  26198.90734652  .00000001  00000+0 -29200-4 0  9998
2 55171  87.9199 329.3275 0002301  89.9476 270.1920 13.18686616173721
ONEWEB-0709             
1 55172U 23004AJ  26199.25713783  .00000388  00000+0  10584-2 0  9990
2 55172  87.8883  14.8913 0002699  96.9616 263.1820 13.11415238169943
ONEWEB-0710             
1 55173U 23004AK  26199.18573737 -.00000044  00000+0 -14731-3 0  9996
2 55173  87.9145 359.6987 0001876  88.4137 271.7210 13.17648198171666
ONEWEB-0711             
1 55174U 23004AL  26198.99941872  .00000123  00000+0  31246-3 0  9990
2 55174  87.8887  14.9309 0001795  68.0948 292.0370 13.11418702169875
ONEWEB-0713             
1 55175U 23004AM  26199.01807955  .00000535  00000+0  14733-2 0  9996
2 55175  87.8888  14.9292 0001801  78.6696 281.4634 13.11416772169862
ONEWEB-0715             
1 55176U 23004AN  26199.24188427  .00000439  00000+0  12035-2 0  9994
2 55176  87.8889  14.8848 0002537  89.5518 270.5901 13.11416640169939
ONEWEB-0716             
1 55177U 23004AP  26198.95117780  .00000010  00000+0 -74876-5 0  9996
2 55177  87.9148 359.7482 0001807 100.2504 259.8832 13.17648316171635
ONEWEB-0717             
1 55178U 23004AQ  26199.01023312 -.00000073  00000+0 -22028-3 0  9992
2 55178  87.9157 359.7270 0002010  77.0799 283.0557 13.17650587171697
ONEWEB-0719             
1 55179U 23004AR  26198.94441721 -.00000168  00000+0 -46542-3 0  9994
2 55179  87.9157 359.7201 0001709  96.4613 263.6713 13.17648738171633
ONEWEB-0530             
1 55796U 23029A   26199.15020382  .00000140  00000+0  31263-3 0  9998
2 55796  87.9173 268.2962 0001781  87.2801 272.8536 13.20773307165230
ONEWEB-0534             
1 55797U 23029B   26199.13841209  .00000083  00000+0  17105-3 0  9991
2 55797  87.9174 268.2999 0002089 100.9287 259.2082 13.20769945165233
ONEWEB-0556             
1 55798U 23029C   26199.14516120  .00000292  00000+0  68743-3 0  9990
2 55798  87.9172 268.2972 0001445 116.7012 243.4270 13.20769244165235
ONEWEB-0562             
1 55799U 23029D   26198.90441834  .00000158  00000+0  35630-3 0  9993
2 55799  87.9172 268.3262 0001266  86.5977 273.5301 13.20772823165207
ONEWEB-0563             
1 55800U 23029E   26199.20239510  .00000057  00000+0  10866-3 0  9998
2 55800  87.9169 268.2966 0002168 103.6422 256.4953 13.20770245165236
